*******************************************************************************
Ephemeris / WWW_USER Tue Feb 19 21:49:09 2019 Pasadena, USA      / Horizons    
*******************************************************************************
Target body name: Voyager 1 (spacecraft) (-31)    {source: Voyager_1}
Center body name: Earth (399)                     {source: Voyager_1}
Center-site name: Green Bank (GBT)
*******************************************************************************
Start time      : A.D. 2019-Feb-20 19:15:00.0000 UT      
Stop  time      : A.D. 2019-Feb-21 07:15:00.0000 UT      
Step-size       : 1 minutes
*******************************************************************************
Target pole/equ : No model available
Target radii    : (unavailable)                                                
Center geodetic : 280.160200,38.4330940,0.8760930 {E-lon(deg),Lat(deg),Alt(km)}
Center cylindric: 280.160200,5003.37558,3943.7589 {E-lon(deg),Dxy(km),Dz(km)}
Center pole/equ : High-precision EOP model        {East-longitude positive}
Center radii    : 6378.1 x 6378.1 x 6356.8 km     {Equator, meridian, pole}    
Target primary  : Earth
Vis. interferer : MOON (R_eq= 1737.400) km        {source: Voyager_1}
Rel. light bend : Sun, EARTH                      {source: Voyager_1}
Rel. lght bnd GM: 1.3271E+11, 3.9860E+05 km^3/s^2                              
Atmos refraction: NO (AIRLESS)
RA format       : HMS
Time format     : CAL 
RTS-only print  : NO       
EOP file        : eop.190218.p190512                                           
EOP coverage    : DATA-BASED 1962-JAN-20 TO 2019-FEB-18. PREDICTS-> 2019-MAY-11
Units conversion: 1 au= 149597870.700 km, c= 299792.458 km/s, 1 day= 86400.0 s 
Table cut-offs 1: Elevation (-90.0deg=NO ),Airmass (>38.000=NO), Daylight (NO )
Table cut-offs 2: Solar elongation (  0.0,180.0=NO ),Local Hour Angle( 0.0=NO )
Table cut-offs 3: RA/DEC angular rate (     0.0=NO )                           
*******************************************************************************************************************
 Date__(UT)__HR:MN     R.A._(ICRF/J2000.0)_DEC dRA*cosD d(DEC)/dt            delta      deldot    S-O-T /r    S-T-O
*******************************************************************************************************************
$$SOE
 2019-Feb-20 21:27 *   17 14 28.45 +12 06 19.9 0.376804  0.542335 145.001790789857  -6.5905507  78.0113 /L   0.3819
 2019-Feb-20 21:28 *   17 14 28.45 +12 06 19.9 0.376832  0.542345 145.001788146468  -6.5917043  78.0118 /L   0.3819
 2019-Feb-20 21:29 *   17 14 28.45 +12 06 19.9 0.376859  0.542356 145.001785502616  -6.5928627  78.0124 /L   0.3819
 2019-Feb-20 21:30 *   17 14 28.46 +12 06 19.9 0.376887  0.542367 145.001782858298  -6.5940260  78.0130 /L   0.3819
 2019-Feb-20 21:31 *   17 14 28.46 +12 06 19.9 0.376914  0.542378 145.001780213513  -6.5951943  78.0135 /L   0.3819
 2019-Feb-20 21:32 *   17 14 28.46 +12 06 19.9 0.376941  0.542389 145.001777568258  -6.5963673  78.0141 /L   0.3819
 2019-Feb-20 21:33 *   17 14 28.46 +12 06 19.9 0.376968  0.542400 145.001774922532  -6.5975453  78.0147 /L   0.3819
 2019-Feb-20 21:34 *   17 14 28.46 +12 06 20.0 0.376995  0.542411 145.001772276332  -6.5987280  78.0152 /L   0.3819
 2019-Feb-20 21:35 *   17 14 28.46 +12 06 20.0 0.377021  0.542422 145.001769629657  -6.5999155  78.0158 /L   0.3819
 2019-Feb-20 21:36 *   17 14 28.46 +12 06 20.0 0.377048  0.542433 145.001766982505  -6.6011078  78.0163 /L   0.3819
 2019-Feb-20 21:37 *   17 14 28.46 +12 06 20.0 0.377074  0.542445 145.001764334874  -6.6023049  78.0169 /L   0.3819
 2019-Feb-20 21:38 *   17 14 28.46 +12 06 20.0 0.377100  0.542456 145.001761686762  -6.6035067  78.0175 /L   0.3819
 2019-Feb-20 21:39 *   17 14 28.46 +12 06 20.0 0.377126  0.542467 145.001759038167  -6.6047132  78.0180 /L   0.3819
 2019-Feb-20 21:40 *   17 14 28.46 +12 06 20.0 0.377152  0.542478 145.001756389087  -6.6059244  78.0186 /L   0.3819
 2019-Feb-20 21:41 *   17 14 28.46 +12 06 20.0 0.377177  0.542490 145.001753739520  -6.6071403  78.0191 /L   0.3819
 2019-Feb-20 21:42 *   17 14 28.46 +12 06 20.0 0.377203  0.542501 145.001751089465  -6.6083608  78.0197 /L   0.3819
 2019-Feb-20 21:43 *   17 14 28.46 +12 06 20.0 0.377228  0.542512 145.001748438919  -6.6095859  78.0203 /L   0.3819
 2019-Feb-20 21:44 *   17 14 28.46 +12 06 20.0 0.377253  0.542524 145.001745787881  -6.6108156  78.0208 /L   0.3819
 2019-Feb-20 21:45 *   17 14 28.46 +12 06 20.1 0.377278  0.542535 145.001743136349  -6.6120499  78.0214 /L   0.3819
 2019-Feb-20 21:46 *   17 14 28.46 +12 06 20.1 0.377302  0.542547 145.001740484321  -6.6132888  78.0219 /L   0.3819
 2019-Feb-20 21:47 *   17 14 28.46 +12 06 20.1 0.377327  0.542558 145.001737831795  -6.6145322  78.0225 /L   0.3819
 2019-Feb-20 21:48 *   17 14 28.46 +12 06 20.1 0.377351  0.542570 145.001735178770  -6.6157801  78.0231 /L   0.3819
 2019-Feb-20 21:49 *   17 14 28.46 +12 06 20.1 0.377375  0.542581 145.001732525243  -6.6170325  78.0236 /L   0.3819
 2019-Feb-20 21:50 *   17 14 28.46 +12 06 20.1 0.377399  0.542593 145.001729871213  -6.6182894  78.0242 /L   0.3819
 2019-Feb-20 21:51 *   17 14 28.46 +12 06 20.1 0.377423  0.542605 145.001727216679  -6.6195507  78.0248 /L   0.3819
 2019-Feb-20 21:52 *   17 14 28.46 +12 06 20.1 0.377447  0.542616 145.001724561637  -6.6208165  78.0253 /L   0.3819
 2019-Feb-20 21:53 *   17 14 28.47 +12 06 20.1 0.377470  0.542628 145.001721906087  -6.6220866  78.0259 /L   0.3819
 2019-Feb-20 21:54 *   17 14 28.47 +12 06 20.1 0.377493  0.542640 145.001719250026  -6.6233611  78.0264 /L   0.3819
 2019-Feb-20 21:55 *   17 14 28.47 +12 06 20.1 0.377516  0.542651 145.001716593454  -6.6246400  78.0270 /L   0.3819
 2019-Feb-20 21:56 *   17 14 28.47 +12 06 20.2 0.377539  0.542663 145.001713936368  -6.6259232  78.0276 /L   0.3819
 2019-Feb-20 21:57 *   17 14 28.47 +12 06 20.2 0.377562  0.542675 145.001711278766  -6.6272107  78.0281 /L   0.3819
 2019-Feb-20 21:58 *   17 14 28.47 +12 06 20.2 0.377584  0.542687 145.001708620647  -6.6285025  78.0287 /L   0.3819
 2019-Feb-20 21:59 *   17 14 28.47 +12 06 20.2 0.377606  0.542699 145.001705962010  -6.6297986  78.0292 /L   0.3819
 2019-Feb-20 22:00 *   17 14 28.47 +12 06 20.2 0.377629  0.542711 145.001703302851  -6.6310989  78.0298 /L   0.3819
 2019-Feb-20 22:01 *   17 14 28.47 +12 06 20.2 0.377651  0.542723 145.001700643170  -6.6324034  78.0304 /L   0.3819
 2019-Feb-20 22:02 *   17 14 28.47 +12 06 20.2 0.377672  0.542735 145.001697982966  -6.6337121  78.0309 /L   0.3819
 2019-Feb-20 22:03 *   17 14 28.47 +12 06 20.2 0.377694  0.542747 145.001695322235  -6.6350249  78.0315 /L   0.3819
 2019-Feb-20 22:04 *   17 14 28.47 +12 06 20.2 0.377715  0.542759 145.001692660977  -6.6363419  78.0321 /L   0.3819
 2019-Feb-20 22:05 *   17 14 28.47 +12 06 20.2 0.377736  0.542771 145.001689999190  -6.6376631  78.0326 /L   0.3819
 2019-Feb-20 22:06 *   17 14 28.47 +12 06 20.2 0.377757  0.542783 145.001687336873  -6.6389883  78.0332 /L   0.3819
 2019-Feb-20 22:07 *   17 14 28.47 +12 06 20.3 0.377778  0.542795 145.001684674023  -6.6403176  78.0337 /L   0.3819
 2019-Feb-20 22:08 *   17 14 28.47 +12 06 20.3 0.377799  0.542807 145.001682010639  -6.6416509  78.0343 /L   0.3819
 2019-Feb-20 22:09 *   17 14 28.47 +12 06 20.3 0.377819  0.542819 145.001679346720  -6.6429883  78.0349 /L   0.3819
 2019-Feb-20 22:10 *   17 14 28.47 +12 06 20.3 0.377839  0.542832 145.001676682263  -6.6443297  78.0354 /L   0.3819
 2019-Feb-20 22:11 *   17 14 28.47 +12 06 20.3 0.377859  0.542844 145.001674017268  -6.6456750  78.0360 /L   0.3819
 2019-Feb-20 22:12 *   17 14 28.47 +12 06 20.3 0.377879  0.542856 145.001671351733  -6.6470243  78.0366 /L   0.3819
 2019-Feb-20 22:13 *   17 14 28.47 +12 06 20.3 0.377899  0.542868 145.001668685655  -6.6483775  78.0371 /L   0.3819
 2019-Feb-20 22:14 *   17 14 28.47 +12 06 20.3 0.377918  0.542881 145.001666019034  -6.6497346  78.0377 /L   0.3819
 2019-Feb-20 22:15 *   17 14 28.47 +12 06 20.3 0.377937  0.542893 145.001663351868  -6.6510956  78.0382 /L   0.3819
 2019-Feb-20 22:16 *   17 14 28.48 +12 06 20.3 0.377956  0.542906 145.001660684155  -6.6524605  78.0388 /L   0.3819
 2019-Feb-20 22:17 *   17 14 28.48 +12 06 20.3 0.377975  0.542918 145.001658015895  -6.6538291  78.0394 /L   0.3819
 2019-Feb-20 22:18 *   17 14 28.48 +12 06 20.4 0.377994  0.542930 145.001655347084  -6.6552016  78.0399 /L   0.3819
 2019-Feb-20 22:19 *   17 14 28.48 +12 06 20.4 0.378012  0.542943 145.001652677723  -6.6565779  78.0405 /L   0.3819
 2019-Feb-20 22:20 *   17 14 28.48 +12 06 20.4 0.378030  0.542955 145.001650007808  -6.6579579  78.0411 /L   0.3819
 2019-Feb-20 22:21 *   17 14 28.48 +12 06 20.4 0.378048  0.542968 145.001647337340  -6.6593416  78.0416 /L   0.3819
 2019-Feb-20 22:22 *   17 14 28.48 +12 06 20.4 0.378066  0.542981 145.001644666315  -6.6607291  78.0422 /L   0.3819
 2019-Feb-20 22:23 *   17 14 28.48 +12 06 20.4 0.378084  0.542993 145.001641994734  -6.6621202  78.0427 /L   0.3819
 2019-Feb-20 22:24 *   17 14 28.48 +12 06 20.4 0.378101  0.543006 145.001639322594  -6.6635150  78.0433 /L   0.3819
 2019-Feb-20 22:25 *   17 14 28.48 +12 06 20.4 0.378118  0.543018 145.001636649894  -6.6649134  78.0439 /L   0.3819
 2019-Feb-20 22:26 *   17 14 28.48 +12 06 20.4 0.378135  0.543031 145.001633976632  -6.6663154  78.0444 /L   0.3819
 2019-Feb-20 22:27 *   17 14 28.48 +12 06 20.4 0.378152  0.543044 145.001631302807  -6.6677210  78.0450 /L   0.3819
 2019-Feb-20 22:28 *   17 14 28.48 +12 06 20.4 0.378169  0.543056 145.001628628418  -6.6691301  78.0456 /L   0.3819
 2019-Feb-20 22:29 *   17 14 28.48 +12 06 20.5 0.378185  0.543069 145.001625953463  -6.6705428  78.0461 /L   0.3819
 2019-Feb-20 22:30 *   17 14 28.48 +12 06 20.5 0.378201  0.543082 145.001623277941  -6.6719589  78.0467 /L   0.3819
 2019-Feb-20 22:31 *   17 14 28.48 +12 06 20.5 0.378217  0.543095 145.001620601850  -6.6733786  78.0472 /L   0.3819
 2019-Feb-20 22:32 *   17 14 28.48 +12 06 20.5 0.378233  0.543108 145.001617925189  -6.6748016  78.0478 /L   0.3819
